$$SOE
2460154.500000000, A.D. 2023-Jul-29 00:00:00.0000, -2.470632681546578E+08, 2.939982399614440E+08, -6.721167684691435E+07,
2460161.500000000, A.D. 2023-Aug-05 00:00:00.0000, -2.566252872348686E+08, 2.884598485675056E+08, -6.687028868675558E+07,
2460168.500000000, A.D. 2023-Aug-12 00:00:00.0000, -2.659802881891229E+08, 2.826886740296406E+08, -6.647493851076569E+07,
2460175.500000000, A.D. 2023-Aug-19 00:00:00.0000, -2.751239134536610E+08, 2.766927601144747E+08, -6.602674214991918E+07,
2460182.500000000, A.D. 2023-Aug-26 00:00:00.0000, -2.840521021212054E+08, 2.704800944205524E+08, -6.552682508080014E+07,
2460189.500000000, A.D. 2023-Sep-02 00:00:00.0000, -2.927610776735836E+08, 2.640586016026314E+08, -6.497632044241980E+07,
2460196.500000000, A.D. 2023-Sep-09 00:00:00.0000, -3.012473359843406E+08, 2.574361373185185E+08, -6.437636722797227E+07,
2460203.500000000, A.D. 2023-Sep-16 00:00:00.0000, -3.095076334488156E+08, 2.506204827798408E+08, -6.372810866278066E+07,
2460210.500000000, A.D. 2023-Sep-23 00:00:00.0000, -3.175389748459646E+08, 2.436193401352908E+08, -6.303269077427740E+07,
2460217.500000000, A.D. 2023-Sep-30 00:00:00.0000, -3.253386012882237E+08, 2.364403298213055E+08, -6.229126101693115E+07,
2460224.500000000, A.D. 2023-Oct-07 00:00:00.0000, -3.329039806273875E+08, 2.290909892856316E+08, -6.150496677291384E+07,
2460231.500000000, A.D. 2023-Oct-14 00:00:00.0000, -3.402327992854638E+08, 2.215787697235401E+08, -6.067495408704701E+07,
2460238.500000000, A.D. 2023-Oct-21 00:00:00.0000, -3.473229522838570E+08, 2.139110323817165E+08, -5.980236679184167E+07,
2460245.500000000, A.D. 2023-Oct-28 00:00:00.0000, -3.541725328983542E+08, 2.060950466428412E+08, -5.888834569898096E+07,
2460252.500000000, A.D. 2023-Nov-04 00:00:00.0000, -3.607798231935102E+08, 1.981379890798793E+08, -5.793402779932256E+07,
2460259.500000000, A.D. 2023-Nov-11 00:00:00.0000, -3.671432852581630E+08, 1.900469428433288E+08, -5.694054553027208E+07,
2460266.500000000, A.D. 2023-Nov-18 00:00:00.0000, -3.732615529191889E+08, 1.818288972816660E+08, -5.590902612920947E+07,
2460273.500000000, A.D. 2023-Nov-25 00:00:00.0000, -3.791334238561174E+08, 1.734907477843778E+08, -5.484059107150402E+07,
2460280.500000000, A.D. 2023-Dec-02 00:00:00.0000, -3.847578520825560E+08, 1.650392958060278E+08, -5.373635559072709E+07,
2460287.500000000, A.D. 2023-Dec-09 00:00:00.0000, -3.901339407088782E+08, 1.564812489846525E+08, -5.259742828726579E+07,
2460294.500000000, A.D. 2023-Dec-16 00:00:00.0000, -3.952609346887415E+08, 1.478232213409608E+08, -5.142491084483342E+07,
2460301.500000000, A.D. 2023-Dec-23 00:00:00.0000, -4.001382131895320E+08, 1.390717342201983E+08, -5.021989782477207E+07,
2460308.500000000, A.D. 2023-Dec-30 00:00:00.0000, -4.047652829162747E+08, 1.302332190003373E+08, -4.898347632424589E+07,
2460315.500000000, A.D. 2024-Jan-06 00:00:00.0000, -4.091417741543391E+08, 1.213140191824131E+08, -4.771672552510130E+07,
2460322.500000000, A.D. 2024-Jan-13 00:00:00.0000, -4.132674363517822E+08, 1.123203900373508E+08, -4.642071656937972E+07,
2460329.500000000, A.D. 2024-Jan-20 00:00:00.0000, -4.171421320081494E+08, 1.032584988768872E+08, -4.509651261834483E+07,
2460336.500000000, A.D. 2024-Jan-27 00:00:00.0000, -4.207658308897447E+08, 9.413442658411165E+07, -4.374516885283355E+07,
2460343.500000000, A.D. 2024-Feb-03 00:00:00.0000, -4.241386049925166E+08, 8.495416944135995E+07, -4.236773245101792E+07,
2460350.500000000, A.D. 2024-Feb-10 00:00:00.0000, -4.272606239662420E+08, 7.572364095278160E+07, -4.096524259023566E+07,
2460357.500000000, A.D. 2024-Feb-17 00:00:00.0000, -4.301321508509495E+08, 6.644867365818382E+07, -3.953873048201495E+07,
2460364.500000000, A.D. 2024-Feb-24 00:00:00.0000, -4.327535380792605E+08, 5.713502094195546E+07, -3.808921943954102E+07,
2460371.500000000, A.D. 2024-Mar-02 00:00:00.0000, -4.351252237052374E+08, 4.778835879440708E+07, -3.661772498030293E+07,
2460378.500000000, A.D. 2024-Mar-09 00:00:00.0000, -4.372477277110062E+08, 3.841428745348135E+07, -3.512525497936720E+07,
2460385.500000000, A.D. 2024-Mar-16 00:00:00.0000, -4.391216479858286E+08, 2.901833311563939E+07, -3.361280989111535E+07,
2460392.500000000, A.D. 2024-Mar-23 00:00:00.0000, -4.407476560711234E+08, 1.960595081675067E+07, -3.208138293716663E+07,
2460399.500000000, A.D. 2024-Mar-30 00:00:00.0000, -4.421264949036085E+08, 1.018252844773733E+07, -3.053196005537135E+07,
2460406.500000000, A.D. 2024-Apr-06 00:00:00.0000, -4.432589782943243E+08, 7.533885297769979E+05, -2.896551990743653E+07,
2460413.500000000, A.D. 2024-Apr-13 00:00:00.0000, -4.441459885862870E+08, -8.676211419665696E+06, -2.738303420130820E+07,
2460420.500000000, A.D. 2024-Apr-20 00:00:00.0000, -4.447884734344844E+08, -1.810107725818107E+07, -2.578546802056255E+07,
2460427.500000000, A.D. 2024-Apr-27 00:00:00.0000, -4.451874432181066E+08, -2.751607589439882E+07, -2.417378006630966E+07,
2460434.500000000, A.D. 2024-May-04 00:00:00.0000, -4.453439689924703E+08, -3.691613297670485E+07, -2.254892287638941E+07,
2460441.500000000, A.D. 2024-May-11 00:00:00.0000, -4.452591807377105E+08, -4.629623069937451E+07, -2.091184305111754E+07,
2460448.500000000, A.D. 2024-May-18 00:00:00.0000, -4.449342658167617E+08, -5.565140570675030E+07, -1.926348149016616E+07,
2460455.500000000, A.D. 2024-May-25 00:00:00.0000, -4.443704676121125E+08, -6.497674710485326E+07, -1.760477364221416E+07,
2460462.500000000, A.D. 2024-Jun-01 00:00:00.0000, -4.435690842759092E+08, -7.426739464013977E+07, -1.593664977639295E+07,
2460469.500000000, A.D. 2024-Jun-08 00:00:00.0000, -4.425314673418144E+08, -8.351853707051921E+07, -1.426003529890607E+07,
2460476.500000000, A.D. 2024-Jun-15 00:00:00.0000, -4.412590197940221E+08, -9.272541018552534E+07, -1.257585110587273E+07,
2460483.500000000, A.D. 2024-Jun-22 00:00:00.0000, -4.397531945935538E+08, -1.018832933025586E+08, -1.088501378318746E+07,
2460490.500000000, A.D. 2024-Jun-29 00:00:00.0000, -4.380154957793723E+08, -1.109875060627166E+08, -9.188435606860928E+06,
2460497.500000000, A.D. 2024-Jul-06 00:00:00.0000, -4.360474794973962E+08, -1.200334079998265E+08, -7.487024787838750E+06,
2460504.500000000, A.D. 2024-Jul-13 00:00:00.0000, -4.338507530057944E+08, -1.290163980593674E+08, -5.781685908528447E+06,
2460511.500000000, A.D. 2024-Jul-20 00:00:00.0000, -4.314269736377803E+08, -1.379319129193389E+08, -4.073320274201594E+06,
2460518.500000000, A.D. 2024-Jul-27 00:00:00.0000, -4.287778483741165E+08, -1.467754250747501E+08, -2.362826197066195E+06,
2460525.500000000, A.D. 2024-Aug-03 00:00:00.0000, -4.259051337507430E+08, -1.555424410630741E+08, -6.510992684958428E+05,
2460532.500000000, A.D. 2024-Aug-10 00:00:00.0000, -4.228106359349524E+08, -1.642284998362890E+08, 1.060967365251578E+06,
2460539.500000000, A.D. 2024-Aug-17 00:00:00.0000, -4.194962109213586E+08, -1.728291712577461E+08, 2.772482721614614E+06,
2460546.500000000, A.D. 2024-Aug-24 00:00:00.0000, -4.159637648172629E+08, -1.813400547455675E+08, 4.482557690598406E+06,
2460553.500000000, A.D. 2024-Aug-31 00:00:00.0000, -4.122152540982047E+08, -1.897567781238184E+08, 6.190304718569547E+06,
2460560.500000000, A.D. 2024-Sep-07 00:00:00.0000, -4.082526854643126E+08, -1.980749965560104E+08, 7.894837443859719E+06,
2460567.500000000, A.D. 2024-Sep-14 00:00:00.0000, -4.040781152091241E+08, -2.062903905673812E+08, 9.595270357648611E+06,
2460574.500000000, A.D. 2024-Sep-21 00:00:00.0000, -3.996936501282105E+08, -2.143986627466910E+08, 1.129071870973551E+07,
2460581.500000000, A.D. 2024-Sep-28 00:00:00.0000, -3.951014504560448E+08, -2.223955363591183E+08, 1.298029844000529E+07,
2460588.500000000, A.D. 2024-Oct-05 00:00:00.0000, -3.903037311644623E+08, -2.302767558714707E+08, 1.466312579934654E+07,
2460595.500000000, A.D. 2024-Oct-12 00:00:00.0000, -3.853027619851086E+08, -2.380380864100800E+08, 1.633831693720435E+07,
2460602.500000000, A.D. 2024-Oct-19 00:00:00.0000, -3.801008679059569E+08, -2.456753124220889E+08, 1.800498759477036E+07,
2460609.500000000, A.D. 2024-Oct-26 00:00:00.0000, -3.747004301726983E+08, -2.531842363427874E+08, 1.966225284163526E+07,
2460616.500000000, A.D. 2024-Nov-02 00:00:00.0000, -3.691038875369799E+08, -2.605606774198686E+08, 2.130922682050321E+07,
2460623.500000000, A.D. 2024-Nov-09 00:00:00.0000, -3.633137376551189E+08, -2.678004706765670E+08, 2.294502249325618E+07,
2460630.500000000, A.D. 2024-Nov-16 00:00:00.0000, -3.573325386117935E+08, -2.748994660158713E+08, 2.456875138657723E+07,
2460637.500000000, A.D. 2024-Nov-23 00:00:00.0000, -3.511629105220852E+08, -2.818535275182288E+08, 2.617952332934704E+07,
2460644.500000000, A.D. 2024-Nov-30 00:00:00.0000, -3.448075370039244E+08, -2.886585329782013E+08, 2.777644615984598E+07,
2460651.500000000, A.D. 2024-Dec-07 00:00:00.0000, -3.382691661019724E+08, -2.953103732624776E+08, 2.935862539932939E+07,
2460658.500000000, A.D. 2024-Dec-14 00:00:00.0000, -3.315506113518452E+08, -3.018049502683303E+08, 3.092516405583306E+07,
2460665.500000000, A.D. 2024-Dec-21 00:00:00.0000, -3.246547553031052E+08, -3.081381747269093E+08, 3.247516267008817E+07,
2460672.500000000, A.D. 2024-Dec-28 00:00:00.0000, -3.175845535293269E+08, -3.143059668239760E+08, 3.400771918089417E+07,
2460679.500000000, A.D. 2025-Jan-04 00:00:00.0000, -3.103430365302148E+08, -3.203042572675616E+08, 3.552192856704937E+07,
2460686.500000000, A.D. 2025-Jan-11 00:00:00.0000, -3.029333113487564E+08, -3.261289871471436E+08, 3.701688256976293E+07,
2460693.500000000, A.D. 2025-Jan-18 00:00:00.0000, -2.953585638208199E+08, -3.317761075073565E+08, 3.849166950564285E+07,
2460700.500000000, A.D. 2025-Jan-25 00:00:00.0000, -2.876220612136818E+08, -3.372415791160427E+08, 3.994537411013162E+07,
2460707.500000000, A.D. 2025-Feb-01 00:00:00.0000, -2.797271550643053E+08, -3.425213724634090E+08, 4.137707739265987E+07,
2460714.500000000, A.D. 2025-Feb-08 00:00:00.0000, -2.716772841599710E+08, -3.476114679800479E+08, 4.278585650111894E+07,
$$EOE